FORMOSAT 7-3            
1 44343U 19036E   26068.82630502  .00006445  00000+0  37650-3 0  9997
2 44343  23.9981 141.9797 0001061 150.4425 209.6139 15.08933962368215
STARLINK-3203           
1 49761U 21115AP  26068.42580933 -.00000871  00000+0 -36624-4 0  9995
2 49761  53.2181 140.3041 0001388  85.9447 274.1704 15.08834749235632
